CELTEE 1                
1 41850U 16067C   18308.80738016  .00000721  00000-0  68095-4 0  9993
2 41850  97.9220  38.8356 0010210  62.0316 298.1937 14.96893029108137
OPTICUBE 04             
1 41851U 16067D   18308.85420756  .00000165  00000-0  19759-4 0  9993
2 41851  97.9208  38.7560 0009930  62.3003 297.9224 14.96719729108133
AEROCUBE 8D             
1 41852U 16067E   18308.23748123 -.00000242  00000-0 -15927-4 0  9998
2 41852  97.9223  37.9636 0010743  62.7126 297.5188 14.96577828108025
AEROCUBE 8C             
1 41853U 16067F   18308.18814828  .00000307  00000-0  32291-4 0  9992
2 41853  97.9220  37.8667 0011117  65.1279 295.1096 14.96540051108017
PROMETHEUS 2-1          
1 41854U 16067G   18308.18292976  .00000298  00000-0  31422-4 0  9991
2 41854  97.9225  37.9091 0011297  64.5185 295.7203 14.96686688108016
PROMETHEUS 2-3          
1 41855U 16067H   18308.78737726  .00000417  00000-0  41811-4 0  9991
2 41855  97.9228  38.5291 0011498  63.2550 296.9846 14.96686918108106
ITF-2                   
1 41932U 98067KU  18308.46154656  .00087065  13976-4  27546-3 0  9999
2 41932  51.6274 331.6691 0006481  36.9452 323.1999 15.91268704102971
INS-1B                  
1 41954U 17008G   18308.24894277  .00001029  00000-0  46240-4 0  9994
2 41954  97.4309  10.9458 0008443 213.1114 146.9595 15.23365217 95329
BGUSAT                  
1 41999U 17008BD  18308.65774655  .00001714  00000-0  71242-4 0  9996
2 41999  97.4362  12.8569 0007163 228.3685 131.6939 15.25164831 94839
DIDO-2                  
1 42000U 17008BE  18308.17711754  .00000756  00000-0  34674-4 0  9991
2 42000  97.4325  11.3684 0007274 234.1509 125.9053 15.23470775 94712
PEASSS                  
1 42015U 17008BV  18308.47274220  .00000913  00000-0  40251-4 0  9995
2 42015  97.4326  12.2932 0005073 238.4455 121.6287 15.24332006 95287
AL-FARABI 1             
1 42016U 17008BW  18308.16119638  .00001140  00000-0  48825-4 0  9991
2 42016  97.4336  12.2942 0004947 239.3536 120.7214 15.24827047 95373
NAYIF-1 (EO-88)         
1 42017U 17008BX  18308.48124518  .00001177  00000-0  50267-4 0  9993
2 42017  97.4334  12.6199 0004924 238.2365 121.8394 15.24854915 95446
HAVELSAT                
1 42700U 98067LH  18308.57227248  .00048001  00000-0  23481-3 0  9994
2 42700  51.6294 352.0928 0005277  45.5347 314.6086 15.81774072 84158
CXBN-2                  
1 42704U 98067LM  18308.50991402  .00048989  00000-0  24570-3 0  9996
2 42704  51.6324 353.9782 0004558  17.7049 342.4111 15.81229483 84042
PHOENIX                 
1 42706U 98067LP  18308.58205021  .00026158  00000-0  16802-3 0  9994
2 42706  51.6311 357.5048 0002999  10.3428 349.7633 15.76040542 83995
X-CUBESAT               
1 42707U 98067LQ  18308.58511662  .00061191  00000-0  27010-3 0  9995
2 42707  51.6300 350.5800 0004904  23.1195 337.0028 15.83869139 84071
QBEE50-LTU-OC           
1 42708U 98067LR  18308.59049043  .00050192  00000-0  24956-3 0  9991
2 42708  51.6300 352.9827 0003676  25.5591 334.5592 15.81411993 84008
ALTAIR PATHFINDER       
1 42711U 98067LS  18308.74809391  .00014038  00000-0  12568-3 0  9997
2 42711  51.6361   9.9511 0004269 359.4344   0.6648 15.68643958 83502
SHARC                   
1 42712U 98067LT  18308.63587730  .00031329  00000-0  23905-3 0  9995
2 42712  51.6366  10.7665 0003844   4.3804 355.7227 15.71912319 83728
ZA-AEROSAT              
1 42713U 98067LU  18308.54902916  .00026835  00000-0  18405-3 0  9998
2 42713  51.6352   1.7850 0003572   6.2036 353.9007 15.74509288 83597
CSUNSAT 1               
1 42715U 98067LW  18308.54712297  .00029928  00000-0  19279-3 0  9997
2 42715  51.6349   0.2870 0004873   2.8737 357.2290 15.75886504 83610
SPACECUBE               
1 42717U 98067LY  18308.56616352  .00049021  00000-0  24563-3 0  9994
2 42717  51.6261 353.4929 0004629  40.6459 319.4888 15.81249115 83074
HOOPOE                  
1 42718U 98067LZ  18308.55912537  .00108052  15407-4  35592-3 0  9993
2 42718  51.6264 345.8563 0006380  34.8284 325.3139 15.90336946 83179
NJUST-1                 
1 42722U 98067MB  18308.41318963  .00022768  00000-0  16827-3 0  9994
2 42722  51.6389   5.2362 0005953  38.4643  49.7995 15.72854418 82603
UNSW-ECO                
1 42723U 98067MC  18308.51956795  .00180160  23882-4  44490-3 0  9992
2 42723  51.6369 344.2178 0008394  38.4055 321.7549 15.95545031 82872
LILACSAT-1              
1 42725U 98067ME  18308.77435365  .00038137  00000-0  22003-3 0  9992
2 42725  51.6383 357.0566 0005550  34.9710  74.0698 15.78250570 82654
NSIGHT-1                
1 42726U 98067MF  18308.61461560  .00008959  00000-0  97389-4 0  9991
2 42726  51.6400  18.1793 0005516  38.5427 321.5961 15.64314305 82362
SNUSAT-1                
1 42727U 98067MG  18308.58163686  .00037948  00000-0  22057-3 0  9995
2 42727  51.6333 358.1656 0006811  16.6210 343.5013 15.78076622 82587
I-INSPIRE II            
1 42731U 98067ML  18308.54349139  .00241400  35078-4  49614-3 0  9990
2 42731  51.6318 341.9700 0008826  28.7444 331.4050 15.98765776 82681
POLYITAN-2-SAU          
1 42732U 98067MM  18308.55323205  .00066045  00000-0  29694-3 0  9997
2 42732  51.6316 351.9367 0006827  13.9770 346.1420 15.83433580 82556
SNUSAT-1B               
1 42733U 98067MN  18308.58655484  .00044802  00000-0  24092-3 0  9992
2 42733  51.6305 355.9597 0006962  11.4473 348.6686 15.79725630 82508
EXALTA-1                
1 42734U 98067MP  18308.53775425  .00434602  99895-4  57546-3 0  9991
2 42734  51.6190 339.4649 0009722  38.8116 321.3592 16.06061456 82661
BEEAGLESAT              
1 42736U 98067MR  18308.76578980  .00034024  00000-0  21193-3 0  9994
2 42736  51.6326 358.6955 0006354  33.3445 326.7954 15.76573880 82543
UCLSAT                  
1 42765U 17036A   18307.91613955  .00000964  00000-0  44980-4 0  9997
2 42765  97.3848   5.4111 0010373 312.0089  48.0264 15.22184281 76555
LITUANICASAT-2          
1 42768U 17036D   18308.46854961  .00001546  00000-0  70800-4 0  9992
2 42768  97.3869   5.5091 0013965 297.1276  62.8535 15.21908935 75890
AALTO-1                 
1 42775U 17036L   18307.91198232  .00000530  00000-0  26989-4 0  9992
2 42775  97.3838   4.6386 0012635 298.5796  61.4167 15.20971527 75731
URSA MAIOR              
1 42776U 17036M   18308.41666534  .00000668  00000-0  33133-4 0  9995
2 42776  97.3845   5.2160 0012433 296.7006  63.2956 15.21072578 75811
COMPASS 2               
1 42777U 17036N   18308.84262303  .00001294  00000-0  59347-4 0  9990
2 42777  97.3871   6.2752 0011267 297.9742  62.0354 15.22172244 75904
DIAMOND RED             
1 42783U 17036U   18308.67661846  .00000766  00000-0  36816-4 0  9992
2 42783  97.3847   5.9276 0010949 308.9524  51.0736 15.21740953 75873
PEGASUS                 
1 42784U 17036V   18308.82639250  .00000857  00000-0  40545-4 0  9999
2 42784  97.3849   6.1945 0010843 308.2889  51.7371 15.21978795 75905
DIAMOND GREEN           
1 42785U 17036W   18308.14933345  .00000776  00000-0  37251-4 0  9997
2 42785  97.3849   5.4274 0010885 311.7917  48.2389 15.21738907 75785
DIAMOND BLUE            
1 42786U 17036X   18307.88540739  .00000759  00000-0  36540-4 0  9990
2 42786  97.3849   5.1681 0010749 313.1906  46.8432 15.21741487 75823
NUDTSAT                 
1 42787U 17036Y   18308.88239686  .00001607  00000-0  71868-4 0  9993
2 42787  97.3875   6.6045 0011687 312.2539  47.7702 15.22701582 75774
SUCHAI                  
1 42788U 17036Z   18308.82217558  .00001037  00000-0  48000-4 0  9991
2 42788  97.3851   6.3543 0010444 308.1016  51.9278 15.22301940 75985
SKCUBE                  
1 42789U 17036AA  18307.84010815  .00000966  00000-0  45004-4 0  9991
2 42789  97.3850   5.3695 0010348 312.0436  47.9919 15.22238167 75757
VZLUSAT-1               
1 42790U 17036AB  18307.88449233  .00001277  00000-0  57754-4 0  9998
2 42790  97.3858   5.6280 0009960 311.7822  48.2563 15.22705486 75777
ROBUSTA-1B              
1 42792U 17036AD  18308.71514593  .00000969  00000-0  44940-4 0  9995
2 42792  97.3848   6.3215 0009881 309.8441  50.1925 15.22398195 75905
CICERO 6                
1 42793U 17036AE  18308.13655569  .00000756  00000-0  35987-4 0  9996
2 42793  97.3837   5.6902 0009167 314.3621  45.6864 15.22154267 75885
D-SAT                   
1 42794U 17036AF  18308.78297947  .00000136  00000-0  17244-4 0  9998
2 42794  97.5742 357.9995 0127126 173.6057 186.6822 14.90958124 74677
TOKI                    
1 42820U 98067MU  18308.60941558  .00030231  00000-0  19929-3 0  9996
2 42820  51.6342   2.9233 0004049 359.0302   1.0689 15.75354371 75936
MAZAALAI (NUMSAT-1)     
1 42822U 98067MW  18308.48626277  .00029251  00000-0  19755-3 0  9999
2 42822  51.6343   4.3654 0004163 359.7011   0.3985 15.74813825 75881
BRAC ONNESHA            
1 42823U 98067MX  18308.21426429  .00029786  00000-0  19905-3 0  9998
2 42823  51.6344   5.5757 0006005   6.7742 353.3337 15.75036993 75849
NIGERIAEDUSAT-1         
1 42824U 98067MY  18308.20060424  .00028939  00000-0  19705-3 0  9994
2 42824  51.6349   6.2588 0005819   6.3905 353.7167 15.74620221 75829
CORVUS BC2              
1 42846U 17042X   18307.85153993  .00000142  00000-0  19387-4 0  9999
2 42846  97.5837 205.5743 0011196  90.8113 269.4389 14.91877327 71199
CORVUS BC1              
1 42847U 17042Y   18308.22234768  .00000077  00000-0  12854-4 0  9991
2 42847  97.5835 206.0016 0010825  89.3552 270.8908 14.91977289 71242
SILU-1 (SILKROAD 1)     
1 42903U 17021F   18308.78180127  .00038414  00000-0  20011-3 0  9990
2 42903  42.7741 192.0380 0016063 223.8340 209.0065 15.80016386 72106
MIRATA                  
1 43015U 17073C   18308.47250495  .00000545  00000-0  48282-4 0  9999
2 43015  97.7095 233.6523 0257089 174.4071 186.0113 14.78457095 51861
MAKERSAT 0              
1 43016U 17073D   18308.79903841  .00000357  00000-0  33413-4 0  9996
2 43016  97.7126 234.1279 0258861 173.4481 187.0227 14.78368548 51900
